NORAD_CAT_ID,OBJECT_NAME,OBJECT_TYPE,EPOCH,MEAN_MOTION,ECCENTRICITY,INCLINATION,RA_OF_ASC_NODE,ARG_OF_PERICENTER,MEAN_ANOMALY,BSTAR,MEAN_MOTION_DOT,MEAN_MOTION_DDOT,TLE_LINE0,TLE_LINE1,TLE_LINE2,SEMIMAJOR_AXIS,PERIOD,APOGEE,PERIGEE,DECAYED
52112.0,STARLINK-3734,PAYLOAD,2023-05-21 16:15:15,15.08830792,0.0001241,53.2163,351.6019,85.9226,274.1908,-8.0237e-05,-1.564e-05,0.0,0 STARLINK-3734,1 52112U 22029AA  23141.67726298 -.00001564  00000-0 -80237-4 0  9996,2 52112  53.2163 351.6019 0001241  85.9226 274.1908 15.08830792 66341,6917.909,95.438,540.632,538.915,0.0
52112.0,STARLINK-3734,PAYLOAD,2023-05-21 21:01:24,15.08848068,9.57e-05,53.2161,350.711,94.9996,265.1106,0.00018226,2.615e-05,0.0,0 STARLINK-3734,1 52112U 22029AA  23141.87597437  .00002615  00000-0  18226-3 0  9993,2 52112  53.2161 350.7110 0000957  94.9996 265.1106 15.08848068 66376,6917.856,95.437,540.383,539.059,0.0
52112.0,STARLINK-3734,PAYLOAD,2023-05-22 00:12:10,15.08853792,9.96e-05,53.2165,350.1147,93.8602,266.2504,0.00022579,3.309e-05,0.0,0 STARLINK-3734,1 52112U 22029AA  23142.00845070  .00003309  00000-0  22579-3 0  9995,2 52112  53.2165 350.1147 0000996  93.8602 266.2504 15.08853792 66395,6917.838,95.437,540.392,539.014,0.0
52112.0,STARLINK-3734,PAYLOAD,2023-05-22 06:33:42,15.08847309,9.78e-05,53.2167,348.926,88.8238,271.2866,0.00015639,2.203e-05,0.0,0 STARLINK-3734,1 52112U 22029AA  23142.27341319  .00002203  00000-0  15639-3 0  9992,2 52112  53.2167 348.9260 0000978  88.8238 271.2866 15.08847309 66436,6917.858,95.437,540.4,539.046,0.0
52112.0,STARLINK-3734,PAYLOAD,2023-05-22 20:52:11,15.08841063,0.0001888,53.2171,346.2481,85.017,275.1037,1.0189e-05,-1.26e-06,0.0,0 STARLINK-3734,1 52112U 22029AA  23142.86957815 -.00000126  00000-0  10189-4 0  9990,2 52112  53.2171 346.2481 0001888  85.0170 275.1037 15.08841063 66526,6917.877,95.437,541.048,538.436,0.0
52112.0,STARLINK-3734,PAYLOAD,2023-05-23 03:13:44,15.08831521,0.0001208,53.2167,345.0592,82.6028,277.5102,-0.00014949,-2.666e-05,0.0,0 STARLINK-3734,1 52112U 22029AA  23143.13454182 -.00002666  00000-0 -14949-3 0  9999,2 52112  53.2167 345.0592 0001208  82.6028 277.5102 15.08831521 66563,6917.906,95.438,540.607,538.936,0.0
52112.0,STARLINK-3734,PAYLOAD,2023-05-23 17:32:12,15.08841295,0.0001072,53.2166,342.3827,93.3843,266.7272,2.2974e-05,7.8e-07,0.0,0 STARLINK-3734,1 52112U 22029AA  23143.73070131  .00000078  00000-0  22974-4 0  9994,2 52112  53.2166 342.3827 0001072  93.3843 266.7272 15.08841295 66653,6917.876,95.437,540.483,539.0,0.0
52112.0,STARLINK-3734,PAYLOAD,2023-05-23 22:18:21,15.08845035,0.0001006,53.2177,341.4915,91.4547,268.656,4.601e-05,4.45e-06,0.0,0 STARLINK-3734,1 52112U 22029AA  23143.92942108  .00000445  00000-0  46010-4 0  9992,2 52112  53.2177 341.4915 0001006  91.4547 268.6560 15.08845035 66680,6917.865,95.437,540.426,539.034,0.0
52112.0,STARLINK-3734,PAYLOAD,2023-05-24 06:15:18,15.08830491,0.0001388,53.2176,340.0047,90.2315,269.8836,-2.3005e-06,-3.25e-06,0.0,0 STARLINK-3734,1 52112U 22029AA  23144.26063085 -.00000325  00000-0 -23005-5 0  9997,2 52112  53.2176 340.0047 0001388  90.2315 269.8836 15.08830491 66738,6917.909,95.438,540.735,538.814,0.0
52112.0,STARLINK-3734,PAYLOAD,2023-05-24 14:12:13,15.08830978,0.0001091,53.2176,338.5174,86.1278,273.9839,9.5325e-05,1.229e-05,0.0,0 STARLINK-3734,1 52112U 22029AA  23144.59182852  .00001229  00000-0  95325-4 0  9992,2 52112  53.2176 338.5174 0001091  86.1278 273.9839 15.08830978 66788,6917.908,95.438,540.528,539.018,0.0
52112.0,STARLINK-3734,PAYLOAD,2023-05-25 18:49:10,15.08844648,0.0001119,53.2176,333.1648,86.6952,273.4168,0.00010641,1.406e-05,0.0,0 STARLINK-3734,1 52112U 22029AA  23145.78414381  .00001406  00000-0  10641-3 0  9993,2 52112  53.2176 333.1648 0001119  86.6952 273.4168 15.08844648 66969,6917.866,95.437,540.505,538.957,0.0
52112.0,STARLINK-3734,PAYLOAD,2023-05-26 18:39:57,15.0883942,0.0001114,53.2176,328.7048,83.0728,277.0391,6.454e-05,7.39e-06,0.0,0 STARLINK-3734,1 52112U 22029AA  23146.77774807  .00000739  00000-0  64540-4 0  9991,2 52112  53.2176 328.7048 0001114  83.0728 277.0391 15.08839420 67118,6917.882,95.438,540.518,538.977,0.0
52112.0,STARLINK-3734,PAYLOAD,2023-05-27 21:41:30,15.08842565,0.0001052,53.2173,323.649,97.458,262.6531,5.6405e-05,6.1e-06,0.0,0 STARLINK-3734,1 52112U 22029AA  23147.90382553  .00000610  00000-0  56405-4 0  9999,2 52112  53.2173 323.6490 0001052  97.4580 262.6531 15.08842565 67284,6917.873,95.437,540.465,539.01,0.0
52112.0,STARLINK-3734,PAYLOAD,2023-05-28 16:46:08,15.0884163,0.0001063,53.2174,320.0801,96.7351,263.3762,9.6686e-05,1.251e-05,0.0,0 STARLINK-3734,1 52112U 22029AA  23148.69870577  .00001251  00000-0  96686-4 0  9991,2 52112  53.2174 320.0801 0001063  96.7351 263.3762 15.08841630 67402,6917.875,95.437,540.476,539.005,0.0
52112.0,STARLINK-3734,PAYLOAD,2023-05-29 03:53:50,15.08841435,0.0001051,53.2173,317.9986,95.5546,264.5566,9.6874e-05,1.254e-05,0.0,0 STARLINK-3734,1 52112U 22029AA  23149.16238570  .00001254  00000-0  96874-4 0  9997,2 52112  53.2173 317.9986 0001051  95.5546 264.5566 15.08841435 67475,6917.876,95.437,540.468,539.014,0.0
52112.0,STARLINK-3734,PAYLOAD,2023-05-29 15:01:32,15.08835126,0.0001098,53.2173,315.9173,96.0793,264.0325,8.7868e-06,-1.48e-06,0.0,0 STARLINK-3734,1 52112U 22029AA  23149.62607278 -.00000148  00000-0  87868-5 0  9999,2 52112  53.2173 315.9173 0001098  96.0793 264.0325 15.08835126 67548,6917.895,95.438,540.52,539.001,0.0
52112.0,STARLINK-3734,PAYLOAD,2023-05-29 18:12:18,15.08839887,0.000106,53.217,315.3235,95.7644,264.3469,5.0191e-05,5.11e-06,0.0,0 STARLINK-3734,1 52112U 22029AA  23149.75854846  .00000511  00000-0  50191-4 0  9999,2 52112  53.2170 315.3235 0001060  95.7644 264.3469 15.08839887 67560,6917.881,95.438,540.479,539.012,0.0
52112.0,STARLINK-3734,PAYLOAD,2023-05-30 03:44:37,15.0883968,0.000103,53.2167,313.5403,99.1726,260.9383,-1.311e-06,-3.09e-06,0.0,0 STARLINK-3734,1 52112U 22029AA  23150.15598977 -.00000309  00000-0 -13110-5 0  9993,2 52112  53.2167 313.5403 0001030  99.1726 260.9383 15.08839680 67624,6917.881,95.438,540.459,539.034,0.0
52112.0,STARLINK-3734,PAYLOAD,2023-05-30 13:16:56,15.08834947,0.0001043,53.2168,311.7563,96.0957,264.0154,-4.6503e-05,-1.028e-05,0.0,0 STARLINK-3734,1 52112U 22029AA  23150.55343591 -.00001028  00000-0 -46503-4 0  9997,2 52112  53.2168 311.7563 0001043  96.0957 264.0154 15.08834947 67686,6917.896,95.438,540.482,539.039,0.0
52112.0,STARLINK-3734,PAYLOAD,2023-05-30 19:38:29,15.08791892,0.0001333,53.2167,310.5672,98.7331,261.3812,0.0006488,0.00010039,0.0,0 STARLINK-3734,1 52112U 22029AA  23150.81840186  .00010039  00000-0  64880-3 0  9995,2 52112  53.2167 310.5672 0001333  98.7331 261.3812 15.08791892 67727,6918.027,95.441,540.815,538.97,0.0
52112.0,STARLINK-3734,PAYLOAD,2023-05-31 03:35:24,15.08856784,0.0001014,53.2173,309.08,103.4888,256.6217,-0.00020592,-3.565e-05,0.0,0 STARLINK-3734,1 52112U 22029AA  23151.14958513 -.00003565  00000-0 -20592-3 0  9996,2 52112  53.2173 309.0800 0001014 103.4888 256.6217 15.08856784 67770,6917.829,95.436,540.396,538.993,0.0
52112.0,STARLINK-3734,PAYLOAD,2023-05-31 14:43:06,15.08840833,9.99e-05,53.2171,306.9983,96.074,264.0366,0.00012641,1.725e-05,0.0,0 STARLINK-3734,1 52112U 22029AA  23151.61326840  .00001725  00000-0  12641-3 0  9990,2 52112  53.2171 306.9983 0000999  96.0740 264.0366 15.08840833 67845,6917.878,95.438,540.434,539.052,0.0
52112.0,STARLINK-3734,PAYLOAD,2023-05-31 19:29:15,15.08847818,9.95e-05,53.2172,306.1056,92.8576,267.253,0.00013887,1.923e-05,0.0,0 STARLINK-3734,1 52112U 22029AA  23151.81198374  .00001923  00000-0  13887-3 0  9994,2 52112  53.2172 306.1056 0000995  92.8576 267.2530 15.08847818 67877,6917.856,95.437,540.41,539.033,0.0
52112.0,STARLINK-3734,PAYLOAD,2023-06-01 03:26:11,15.08841457,0.0001048,53.2174,304.6188,79.2769,280.8341,6.965e-05,8.21e-06,0.0,0 STARLINK-3734,1 52112U 22029AA  23152.14318983  .00000821  00000-0  69650-4 0  9997,2 52112  53.2174 304.6188 0001048  79.2769 280.8341 15.08841457 67921,6917.876,95.437,540.466,539.016,0.0
52112.0,STARLINK-3734,PAYLOAD,2023-06-02 09:38:31,15.08840615,0.0001248,53.2165,298.9708,74.2775,285.8355,2.1239e-05,5e-07,0.0,0 STARLINK-3734,1 52112U 22029AA  23153.40175394  .00000050  00000-0  21239-4 0  9999,2 52112  53.2165 298.9708 0001248  74.2775 285.8355 15.08840615 68115,6917.879,95.438,540.607,538.88,0.0
52112.0,STARLINK-3734,PAYLOAD,2023-06-02 14:24:41,15.08837243,0.0001053,53.2167,298.0781,74.5651,285.5458,-4.8842e-06,-3.65e-06,0.0,0 STARLINK-3734,1 52112U 22029AA  23153.60047692 -.00000365  00000-0 -48842-5 0  9991,2 52112  53.2167 298.0781 0001053  74.5651 285.5458 15.08837243 68146,6917.889,95.438,540.482,539.025,0.0
52112.0,STARLINK-3734,PAYLOAD,2023-06-02 16:00:03,15.08843808,0.0001014,53.2172,297.7783,86.4133,273.6975,-2.3952e-05,-6.69e-06,0.0,0 STARLINK-3734,1 52112U 22029AA  23153.66671286 -.00000669  00000-0 -23952-4 0  9990,2 52112  53.2172 297.7783 0001014  86.4133 273.6975 15.08843808 68151,6917.869,95.437,540.435,539.032,0.0
52112.0,STARLINK-3734,PAYLOAD,2023-06-03 09:29:19,15.08834808,0.0001009,53.2171,294.5077,76.7139,283.3965,-2.1422e-05,-6.29e-06,0.0,0 STARLINK-3734,1 52112U 22029AA  23154.39535922 -.00000629  00000-0 -21422-4 0  9993,2 52112  53.2171 294.5077 0001009  76.7139 283.3965 15.08834808 68262,6917.896,95.438,540.459,539.063,0.0
52112.0,STARLINK-3734,PAYLOAD,2023-06-03 14:15:28,15.08833066,8.42e-05,53.2172,293.6163,74.4282,285.6803,6.0256e-05,6.71e-06,0.0,0 STARLINK-3734,1 52112U 22029AA  23154.59407825  .00000671  00000-0  60256-4 0  9998,2 52112  53.2172 293.6163 0000842  74.4282 285.6803 15.08833066 68291,6917.902,95.438,540.349,539.184,0.0
52112.0,STARLINK-3734,PAYLOAD,2023-06-03 19:01:37,15.08840793,8.87e-05,53.2168,292.7232,101.1718,258.9374,4.1124e-05,3.67e-06,0.0,0 STARLINK-3734,1 52112U 22029AA  23154.79279408  .00000367  00000-0  41124-4 0  9999,2 52112  53.2168 292.7232 0000887 101.1718 258.9374 15.08840793 68329,6917.878,95.438,540.357,539.129,0.0
